[{"OBJECT_NAME":"STARLINK-31810","OBJECT_ID":"2024-093T","EPOCH":"2026-03-09T10:20:39.916320","MEAN_MOTION":15.27570549,"ECCENTRICITY":0.00024213,"INCLINATION":43.0048,"RA_OF_ASC_NODE":210.5447,"ARG_OF_PERICENTER":282.6093,"MEAN_ANOMALY":77.4488,"EPHEMERIS_TYPE":0,"CLASSIFICATION_TYPE":"U","NORAD_CAT_ID":59799,"ELEMENT_SET_NO":999,"REV_AT_EPOCH":10265,"BSTAR":5.0108099e-5,"MEAN_MOTION_DOT":1.116e-5,"MEAN_MOTION_DDOT":0},{"OBJECT_NAME":"COSMOS 2251 DEB","OBJECT_ID":"1993-036N","EPOCH":"2026-03-09T20:39:34.848000","MEAN_MOTION":15.17003756,"ECCENTRICITY":0.00564486,"INCLINATION":74.0035,"RA_OF_ASC_NODE":352.1163,"ARG_OF_PERICENTER":60.1769,"MEAN_ANOMALY":300.5022,"EPHEMERIS_TYPE":0,"CLASSIFICATION_TYPE":"U","NORAD_CAT_ID":33765,"ELEMENT_SET_NO":999,"REV_AT_EPOCH":90936,"BSTAR":0.0026022202,"MEAN_MOTION_DOT":0.00053945,"MEAN_MOTION_DDOT":0}]
